     2.100          NAVIGATION                              RINEX VERSION / TYPE
fic2rin                                 06/04/2014 00:36:50 PGM / RUN BY / DATE
                                                            END OF HEADER
28 14  6  3 10  0  0.0  .359546393156D-03  .272848410532D-11  .000000000000D+00
     .140000000000D+02 -.687500000000D+00  .389694803781D-08 -.303059481372D+01
     .223517417908D-07  .191385591170D-01  .356510281563D-05  .515367105865D+04
     .208800000000D+06  .186264514923D-06  .242764264408D+01 -.670552253723D-07
     .986770959703D+00  .323250000000D+03 -.171446966058D+01 -.764817572007D-08
     .735744932444D-10  .100000000000D+01  .179500000000D+04  .000000000000D+00
     .240000000000D+01  .000000000000D+00 -.107102096081D-07  .140000000000D+02
     .201606000000D+06  .400000000000D+01
29 14  6  3 10  0  0.0  .537074636668D-03  .272848410532D-11  .000000000000D+00
     .100000000000D+03 -.798437500000D+02  .411267130927D-08 -.114085355249D+01
    -.412017107010D-05  .154821493197D-02  .759400427341D-05  .515370223999D+04
     .208800000000D+06 -.689178705215D-07 -.282078515088D+01  .372529029846D-07
     .969773636382D+00  .238625000000D+03 -.847888792349D+00 -.789140013706D-08
     .292869342041D-10  .100000000000D+01  .179500000000D+04  .000000000000D+00
     .240000000000D+01  .000000000000D+00 -.977888703346D-08  .100000000000D+03
     .201606000000D+06  .400000000000D+01
30 14  6  3 10  0  0.0 -.204388052225D-04 -.602540239925D-11  .000000000000D+00
     .650000000000D+02  .667500000000D+02  .438732560686D-08 -.947617883974D-01
     .326335430145D-05  .746133853681D-03  .831112265587D-05  .515369916153D+04
     .208800000000D+06  .353902578354D-07  .139421761030D+01 -.242143869400D-07
     .958819788567D+00  .219375000000D+03  .272958778286D+01 -.803676333488D-08
    -.807176479283D-10  .100000000000D+01  .179500000000D+04  .000000000000D+00
     .240000000000D+01  .000000000000D+00  .325962901115D-08  .650000000000D+02
     .201606000000D+06  .400000000000D+01
32 14  6  3 10  0  0.0 -.415036920458D-03  .829913915368D-11  .000000000000D+00
     .720000000000D+02  .141875000000D+02  .535772317068D-08  .212004885529D+00
     .808387994766D-06  .113985701464D-01  .587850809097D-05  .515372257423D+04
     .208800000000D+06  .173225998878D-06 -.693351546566D+00 -.577419996262D-07
     .947659799503D+00  .261687500000D+03 -.151884698813D+00 -.852321216886D-08
     .592881838766D-10  .100000000000D+01  .179500000000D+04  .000000000000D+00
     .240000000000D+01  .000000000000D+00 -.325962901115D-08  .720000000000D+02
     .201606000000D+06  .400000000000D+01
14 14  6  3  9 59 44.0  .167042948306D-03 -.341060513165D-11  .000000000000D+00
     .000000000000D+00  .101250000000D+02  .428160691754D-08  .233970010055D+01
     .387430191040D-06  .755232491065D-02  .842660665512D-05  .515366948318D+04
     .208784000000D+06 -.204890966415D-07  .343570161316D+00 -.117346644402D-06
     .970429794639D+00  .219843750000D+03 -.200264729926D+01 -.776139472182D-08
    -.416445918073D-09  .100000000000D+01  .179500000000D+04  .000000000000D+00
     .240000000000D+01  .000000000000D+00 -.931322574615D-08  .000000000000D+00
     .203706000000D+06  .400000000000D+01
12 14  6  3  9 59 44.0  .209103338420D-03  .250111042988D-11  .000000000000D+00
     .170000000000D+02  .143750000000D+01  .402445334892D-08 -.801758993006D+00
     .149011611938D-07  .514178839512D-02  .385008752346D-05  .515361318588D+04
     .208784000000D+06  .130385160446D-06  .240331655615D+01  .391155481339D-07
     .987626466881D+00  .319687500000D+03  .446809551206D+00 -.802354849872D-08
    -.146434671020D-10  .100000000000D+01  .179500000000D+04  .000000000000D+00
     .240000000000D+01  .000000000000D+00 -.121071934700D-07  .170000000000D+02
     .203766000000D+06  .400000000000D+01
25 14  6  3  9 59 28.0  .245743431151D-04  .341060513165D-12  .000000000000D+00
     .800000000000D+01 -.134375000000D+01  .414945855589D-08 -.157013367026D+01
    -.204890966415D-07  .363898254000D-02  .374577939510D-05  .515360468864D+04
     .208768000000D+06  .651925802231D-07  .236080734446D+01 -.707805156708D-07
     .976308308577D+00  .317187500000D+03  .688976963616D+00 -.804462080503D-08
     .321441960776D-11  .100000000000D+01  .179500000000D+04  .000000000000D+00
     .240000000000D+01  .000000000000D+00  .512227416039D-08  .800000000000D+01
     .208116000000D+06  .400000000000D+01
25 14  6  3 11 59 28.0  .245766714215D-04  .341060513165D-12  .000000000000D+00
     .160000000000D+02  .718750000000D+01  .434339520556D-08 -.520315928424D+00
     .264495611191D-06  .363820651546D-02  .396743416786D-05  .515360153770D+04
     .215968000000D+06  .558793544769D-08  .236074925491D+01  .745058059692D-07
     .976307496657D+00  .308968750000D+03  .689381172270D+00 -.819248410699D-08
    -.464305054455D-10  .100000000000D+01  .179500000000D+04  .000000000000D+00
     .240000000000D+01  .000000000000D+00  .512227416039D-08  .160000000000D+02
     .208806000000D+06  .400000000000D+01
12 14  6  3 11 59 44.0  .209121033549D-03  .250111042988D-11  .000000000000D+00
     .180000000000D+02  .453125000000D+01  .412160025262D-08  .248377926829D+00
     .206753611565D-06  .514143565670D-02  .391714274883D-05  .515361232376D+04
     .215984000000D+06  .260770320892D-07  .240325840662D+01  .689178705215D-07
     .987625970952D+00  .315312500000D+03  .446888019205D+00 -.810426614664D-08
    -.214294640518D-10  .100000000000D+01  .179500000000D+04  .000000000000D+00
     .240000000000D+01  .000000000000D+00 -.121071934700D-07  .180000000000D+02
     .208806000000D+06  .400000000000D+01
14 14  6  3 11 59 44.0  .167018268257D-03 -.341060513165D-11  .000000000000D+00
     .120000000000D+02  .209375000000D+01  .440804075545D-08 -.289328041471D+01
     .167638063431D-06  .755350315012D-02  .823847949505D-05  .515366728592D+04
     .215984000000D+06  .150874257088D-06  .343513449834D+00 -.124797224998D-06
     .970426826378D+00  .223562500000D+03 -.200266906309D+01 -.783996942334D-08
    -.311441544219D-09  .100000000000D+01  .179500000000D+04  .000000000000D+00
     .240000000000D+01  .000000000000D+00 -.931322574615D-08  .120000000000D+02
     .208806000000D+06  .400000000000D+01
 1 14  6  3 12  0  0.0  .142203643918D-04  .113686837722D-11  .000000000000D+00
     .350000000000D+02 -.456250000000D+01  .439875465436D-08  .134004629657D+01
    -.376254320145D-06  .310614833143D-02  .969134271145D-05  .515368185043D+04
     .216000000000D+06 -.353902578354D-07 -.182063084897D+01  .260770320892D-07
     .960610787969D+00  .191781250000D+03  .309426305808D+00 -.792032991353D-08
     .293583657509D-09  .100000000000D+01  .179500000000D+04  .000000000000D+00
     .240000000000D+01  .000000000000D+00  .558793544769D-08  .350000000000D+02
     .208806000000D+06  .400000000000D+01
 2 14  6  3 12  0  0.0  .498999375850D-03  .216004991671D-11  .000000000000D+00
     .800000000000D+02 -.240937500000D+02  .479627121252D-08  .195185269596D+01
    -.116042792797D-05  .135547005339D-01  .101141631603D-04  .515362047577D+04
     .216000000000D+06 -.339001417160D-06 -.185040399826D+01 -.689178705215D-07
     .939166391181D+00  .170968750000D+03 -.241914848382D+01 -.814141055100D-08
     .329656588663D-09  .100000000000D+01  .179500000000D+04  .000000000000D+00
     .240000000000D+01  .000000000000D+00 -.204890966415D-07  .800000000000D+02
     .208806000000D+06  .400000000000D+01
 3 14  6  3 12  0  0.0  .373250804842D-03  .488853402203D-11  .000000000000D+00
     .230000000000D+02 -.843750000000D+02  .479519973932D-08  .206318937984D+01
    -.463053584099D-05  .170584258158D-01  .583380460739D-05  .515380216408D+04
     .216000000000D+06  .214204192162D-06 -.302481888106D+01 -.286847352982D-06
     .938763617650D+00  .254250000000D+03  .138583301383D+01 -.813141013444D-08
    -.953611150304D-10  .100000000000D+01  .179500000000D+04  .000000000000D+00
     .240000000000D+01  .000000000000D+00 -.465661287308D-08  .230000000000D+02
     .208806000000D+06  .400000000000D+01
 4 14  6  3 12  0  0.0  .704266130924D-05  .113686837722D-12  .000000000000D+00
     .100000000000D+02 -.993750000000D+01  .490449000598D-08 -.979038833469D+00
    -.165775418282D-06  .105844605714D-01  .998564064503D-05  .515374089813D+04
     .216000000000D+06  .353902578354D-07 -.183438210629D+01  .242143869400D-06
     .938176770988D+00  .172750000000D+03  .110072615138D+01 -.825855828782D-08
     .363943731146D-09  .100000000000D+01  .179500000000D+04  .000000000000D+00
     .240000000000D+01  .000000000000D+00 -.651925802231D-08  .100000000000D+02
     .208806000000D+06  .400000000000D+01
 5 14  6  3 12  0  0.0 -.368422362953D-03  .272848410532D-11  .000000000000D+00
     .149000000000D+03  .210937500000D+02  .517485841077D-08 -.196120698330D+01
     .800937414169D-06  .358698307537D-02  .635720789433D-05  .515360064888D+04
     .216000000000D+06  .335276126862D-07 -.782240125567D+00 -.819563865662D-07
     .947113058741D+00  .249375000000D+03  .303421606408D+00 -.828677374882D-08
     .203222750758D-09  .100000000000D+01  .179500000000D+04  .000000000000D+00
     .340000000000D+01  .000000000000D+00 -.102445483208D-07  .149000000000D+03
     .208806000000D+06  .400000000000D+01
 6 14  6  3 12  0  0.0  .765966251493D-05  .170530256582D-11  .000000000000D+00
     .370000000000D+02 -.163125000000D+02  .425803450709D-08 -.218848676703D+01
    -.676140189171D-06  .344853964634D-03  .103171914816D-04  .516771781349D+04
     .216000000000D+06  .000000000000D+00 -.182923678641D+01  .745058059692D-08
     .960551381792D+00  .174906250000D+03  .241463840832D+01 -.773532220722D-08
     .370729728096D-09  .100000000000D+01  .179500000000D+04  .000000000000D+00
     .340000000000D+01  .630000000000D+02  .605359673500D-08  .370000000000D+02
     .208806000000D+06  .400000000000D+01
